{"type": "FeatureCollection", "features": [ {"type": "Feature", "properties": {"norad_id": 30728, "name": "FENGYUN 1C DEB", "group": "fengyun-1c-debris", "lat": -40.36572505007635, "lon": 14.849255567378203, "alt_km": 808.0600719066188, "timestamp": "2025-12-27T06:41:31.204871+00:00", "meta": {"OBJECT_NAME": "FENGYUN 1C DEB", "OBJECT_ID": "1999-025ASN", "EPOCH": "2025-12-26T07:15:52.619040", "MEAN_MOTION": 14.23479241, "ECCENTRICITY": 0.0099186, "INCLINATION": 98.5293, "RA_OF_ASC_NODE": 6.574, "ARG_OF_PERICENTER": 42.8697, "MEAN_ANOMALY": 318.0161, "EPHEMERIS_TYPE": 0, "CLASSIFICATION_TYPE": "U", "NORAD_CAT_ID": 30728, "ELEMENT_SET_NO": 999, "REV_AT_EPOCH": 97882, "BSTAR": 8.141e-05, "MEAN_MOTION_DOT": 1.53e-06, "MEAN_MOTION_DDOT": 0}, "tle": {"line1": "1 30728U 99025ASN 25360.30269235  .00000153  00000+0  81410-4 0  9997", "line2": "2 30728  98.5293   6.5740 0099186  42.8697 318.0161 14.23479241978820"}}, "geometry": {"type": "Point", "coordinates": [14.849255567378203, -40.36572505007635]}}, {"type": "Feature", "properties": {"norad_id": 30730, "name": "FENGYUN 1C DEB", "group": "fengyun-1c-debris", "lat": 4.6331385848448585, "lon": 39.44638995580276, "alt_km": 753.1933582408074, "timestamp": "2025-12-27T06:41:31.204881+00:00", "meta": {"OBJECT_NAME": "FENGYUN 1C DEB", "OBJECT_ID": "1999-025ASQ", "EPOCH": "2025-12-26T14:31:50.002176", "MEAN_MOTION": 14.25537661, "ECCENTRICITY": 0.0077675, "INCLINATION": 98.6175, "RA_OF_ASC_NODE": 39.4888, "ARG_OF_PERICENTER": 8.8271, "MEAN_ANOMALY": 142.1548, "EPHEMERIS_TYPE": 0, "CLASSIFICATION_TYPE": "U", "NORAD_CAT_ID": 30730, "ELEMENT_SET_NO": 999, "REV_AT_EPOCH": 97203, "BSTAR": 0.00097466, "MEAN_MOTION_DOT": 2.336e-05, "MEAN_MOTION_DDOT": 0}, "tle": {"line1": "1 30730U 99025ASQ 25360.60543984  .00002336  00000+0  97466-3 0  9991", "line2": "2 30730  98.6175  39.4888 0077675   8.8271 142.1548 14.25537661972035"}}, "geometry": {"type": "Point", "coordinates": [39.44638995580276, 4.6331385848448585]}}, {"type": "Feature", "properties": {"norad_id": 30731, "name": "FENGYUN 1C DEB", "group": "fengyun-1c-debris", "lat": -51.25812296403377, "lon": 92.43734660590707, "alt_km": 761.2474277586698, "timestamp": "2025-12-27T06:41:31.204891+00:00", "meta": {"OBJECT_NAME": "FENGYUN 1C DEB", "OBJECT_ID": "1999-025ASR", "EPOCH": "2025-12-26T16:39:30.263328", "MEAN_MOTION": 14.41957955, "ECCENTRICITY": 0.00158993, "INCLINATION": 98.8577, "RA_OF_ASC_NODE": 80.6239, "ARG_OF_PERICENTER": 207.691, "MEAN_ANOMALY": 306.4307, "EPHEMERIS_TYPE": 0, "CLASSIFICATION_TYPE": "U", "NORAD_CAT_ID": 30731, "ELEMENT_SET_NO": 999, "REV_AT_EPOCH": 97557, "BSTAR": 0.0023301247, "MEAN_MOTION_DOT": 7.609e-05, "MEAN_MOTION_DDOT": 0}, "tle": {"line1": "1 30731U 99025ASR 25360.69410027  .00007609  00000+0  23301-2 0  9996", "line2": "2 30731  98.8577  80.6239 0015899 207.6910 306.4307 14.41957955975571"}}, "geometry": {"type": "Point", "coordinates": [92.43734660590707, -51.25812296403377]}}, {"type": "Feature", "properties": {"norad_id": 30732, "name": "FENGYUN 1C DEB", "group": "fengyun-1c-debris", "lat": -53.110473026639895, "lon": -170.97548722941826, "alt_km": 849.1378011339839, "timestamp": "2025-12-27T06:41:31.204901+00:00", "meta": {"OBJECT_NAME": "FENGYUN 1C DEB", "OBJECT_ID": "1999-025ASS", "EPOCH": "2025-12-26T13:12:15.534720", "MEAN_MOTION": 14.03913572, "ECCENTRICITY": 0.0124293, "INCLINATION": 98.8027, "RA_OF_ASC_NODE": 20.2335, "ARG_OF_PERICENTER": 170.3045, "MEAN_ANOMALY": 341.7178, "EPHEMERIS_TYPE": 0, "CLASSIFICATION_TYPE": "U", "NORAD_CAT_ID": 30732, "ELEMENT_SET_NO": 999, "REV_AT_EPOCH": 96385, "BSTAR": 0.00013304, "MEAN_MOTION_DOT": 1.83e-06, "MEAN_MOTION_DDOT": 0}, "tle": {"line1": "1 30732U 99025ASS 25360.55017980  .00000183  00000+0  13304-3 0  9996", "line2": "2 30732  98.8027  20.2335 0124293 170.3045 341.7178 14.03913572963854"}}, "geometry": {"type": "Point", "coordinates": [-170.97548722941826, -53.110473026639895]}}, {"type": "Feature", "properties": {"norad_id": 30735, "name": "FENGYUN 1C DEB", "group": "fengyun-1c-debris", "lat": 70.97018970897686, "lon": 45.73565162781507, "alt_km": 832.5698551050918, "timestamp": "2025-12-27T06:41:31.204913+00:00", "meta": {"OBJECT_NAME": "FENGYUN 1C DEB", "OBJECT_ID": "1999-025ASV", "EPOCH": "2025-12-26T03:39:16.764768", "MEAN_MOTION": 14.24061785, "ECCENTRICITY": 0.00603666, "INCLINATION": 98.7622, "RA_OF_ASC_NODE": 71.1748, "ARG_OF_PERICENTER": 206.4863, "MEAN_ANOMALY": 214.9357, "EPHEMERIS_TYPE": 0, "CLASSIFICATION_TYPE": "U", "NORAD_CAT_ID": 30735, "ELEMENT_SET_NO": 999, "REV_AT_EPOCH": 96939, "BSTAR": 0.0016045311, "MEAN_MOTION_DOT": 3.715e-05, "MEAN_MOTION_DDOT": 0}, "tle": {"line1": "1 30735U 99025ASV 25360.15227737  .00003715  00000+0  16045-2 0  9996", "line2": "2 30735  98.7622  71.1748 0060366 206.4863 214.9357 14.24061785969397"}}, "geometry": {"type": "Point", "coordinates": [45.73565162781507, 70.97018970897686]}}, {"type": "Feature", "properties": {"norad_id": 30736, "name": "FENGYUN 1C DEB", "group": "fengyun-1c-debris", "lat": -57.32755947478179, "lon": 51.72559239342249, "alt_km": 976.5492801063119, "timestamp": "2025-12-27T06:41:31.204924+00:00", "meta": {"OBJECT_NAME": "FENGYUN 1C DEB", "OBJECT_ID": "1999-025ASW", "EPOCH": "2025-12-22T02:01:20.851104", "MEAN_MOTION": 13.6166731, "ECCENTRICITY": 0.0279263, "INCLINATION": 98.7812, "RA_OF_ASC_NODE": 33.0986, "ARG_OF_PERICENTER": 29.8764, "MEAN_ANOMALY": 24.4821, "EPHEMERIS_TYPE": 0, "CLASSIFICATION_TYPE": "U", "NORAD_CAT_ID": 30736, "ELEMENT_SET_NO": 999, "REV_AT_EPOCH": 92980, "BSTAR": 0.0017109698, "MEAN_MOTION_DOT": 1.664e-05, "MEAN_MOTION_DDOT": 0}, "tle": {"line1": "1 30736U 99025ASW 25356.08426911  .00001664  00000+0  17110-2 0  9994", "line2": "2 30736  98.7812  33.0986 0279263  29.8764  24.4821 13.61667310929803"}}, "geometry": {"type": "Point", "coordinates": [51.72559239342249, -57.32755947478179]}}, {"type": "Feature", "properties": {"norad_id": 30737, "name": "FENGYUN 1C DEB", "group": "fengyun-1c-debris", "lat": 56.47228741718189, "lon": -30.059227644457124, "alt_km": 811.0118836627771, "timestamp": "2025-12-27T06:41:31.204934+00:00", "meta": {"OBJECT_NAME": "FENGYUN 1C DEB", "OBJECT_ID": "1999-025ASX", "EPOCH": "2025-12-26T10:49:10.485120", "MEAN_MOTION": 14.18271568, "ECCENTRICITY": 0.0024507, "INCLINATION": 98.5806, "RA_OF_ASC_NODE": 342.3122, "ARG_OF_PERICENTER": 93.4091, "MEAN_ANOMALY": 58.9809, "EPHEMERIS_TYPE": 0, "CLASSIFICATION_TYPE": "U", "NORAD_CAT_ID": 30737, "ELEMENT_SET_NO": 999, "REV_AT_EPOCH": 97227, "BSTAR": 0.00032558, "MEAN_MOTION_DOT": 6.3e-06, "MEAN_MOTION_DDOT": 0}, "tle": {"line1": "1 30737U 99025ASX 25360.45081580  .00000630  00000+0  32558-3 0  9996", "line2": "2 30737  98.5806 342.3122 0024507  93.4091  58.9809 14.18271568972278"}}, "geometry": {"type": "Point", "coordinates": [-30.059227644457124, 56.47228741718189]}}, {"type": "Feature", "properties": {"norad_id": 30739, "name": "FENGYUN 1C DEB", "group": "fengyun-1c-debris", "lat": 2.309817997855741, "lon": -12.313500867639624, "alt_km": 840.7417669447277, "timestamp": "2025-12-27T06:41:31.204944+00:00", "meta": {"OBJECT_NAME": "FENGYUN 1C DEB", "OBJECT_ID": "1999-025ASZ", "EPOCH": "2025-12-26T11:02:25.467072", "MEAN_MOTION": 14.14974827, "ECCENTRICITY": 0.0100087, "INCLINATION": 98.6936, "RA_OF_ASC_NODE": 347.2423, "ARG_OF_PERICENTER": 277.5939, "MEAN_ANOMALY": 235.0768, "EPHEMERIS_TYPE": 0, "CLASSIFICATION_TYPE": "U", "NORAD_CAT_ID": 30739, "ELEMENT_SET_NO": 999, "REV_AT_EPOCH": 97057, "BSTAR": 0.00038431, "MEAN_MOTION_DOT": 7.36e-06, "MEAN_MOTION_DDOT": 0}, "tle": {"line1": "1 30739U 99025ASZ 25360.46001698  .00000736  00000+0  38431-3 0  9994", "line2": "2 30739  98.6936 347.2423 0100087 277.5939 235.0768 14.14974827970574"}}, "geometry": {"type": "Point", "coordinates": [-12.313500867639624, 2.309817997855741]}}, {"type": "Feature", "properties": {"norad_id": 30740, "name": "FENGYUN 1C DEB", "group": "fengyun-1c-debris", "lat": 22.044300220342716, "lon": -69.5677114976152, "alt_km": 708.9846765485045, "timestamp": "2025-12-27T06:41:31.204954+00:00", "meta": {"OBJECT_NAME": "FENGYUN 1C DEB", "OBJECT_ID": "1999-025ATA", "EPOCH": "2025-12-26T18:23:46.711968", "MEAN_MOTION": 14.52184449, "ECCENTRICITY": 0.00304869, "INCLINATION": 98.688, "RA_OF_ASC_NODE": 106.3526, "ARG_OF_PERICENTER": 94.1968, "MEAN_ANOMALY": 266.2711, "EPHEMERIS_TYPE": 0, "CLASSIFICATION_TYPE": "U", "NORAD_CAT_ID": 30740, "ELEMENT_SET_NO": 999, "REV_AT_EPOCH": 97851, "BSTAR": 0.0024641347, "MEAN_MOTION_DOT": 0.00010018, "MEAN_MOTION_DDOT": 0}, "tle": {"line1": "1 30740U 99025ATA 25360.76651287  .00010018  00000+0  24641-2 0  9995", "line2": "2 30740  98.6880 106.3526 0030486  94.1968 266.2711 14.52184449978513"}}, "geometry": {"type": "Point", "coordinates": [-69.5677114976152, 22.044300220342716]}}, {"type": "Feature", "properties": {"norad_id": 30741, "name": "FENGYUN 1C DEB", "group": "fengyun-1c-debris", "lat": 20.25887287625611, "lon": -166.66023310763325, "alt_km": 847.1834636591175, "timestamp": "2025-12-27T06:41:31.204965+00:00", "meta": {"OBJECT_NAME": "FENGYUN 1C DEB", "OBJECT_ID": "1999-025ATB", "EPOCH": "2025-12-26T16:40:26.247072", "MEAN_MOTION": 14.13242556, "ECCENTRICITY": 0.00072032, "INCLINATION": 98.6792, "RA_OF_ASC_NODE": 9.5414, "ARG_OF_PERICENTER": 82.7992, "MEAN_ANOMALY": 346.5402, "EPHEMERIS_TYPE": 0, "CLASSIFICATION_TYPE": "U", "NORAD_CAT_ID": 30741, "ELEMENT_SET_NO": 999, "REV_AT_EPOCH": 97016, "BSTAR": 0.00016219731, "MEAN_MOTION_DOT": 2.61e-06, "MEAN_MOTION_DDOT": 0}, "tle": {"line1": "1 30741U 99025ATB 25360.69474823  .00000261  00000+0  16220-3 0  9991", "line2": "2 30741  98.6792   9.5414 0007203  82.7992 346.5402 14.13242556970160"}}, "geometry": {"type": "Point", "coordinates": [-166.66023310763325, 20.25887287625611]}}]}